STARLINK-1108           
1 44944U 20001AG  20074.83334491 -.00041047  00000-0 -96769-3 0  9994
2 44944  52.9927  61.5927 0001367  68.9174 140.5741 15.41251402 10652
STARLINK-1109           
1 44945U 20001AH  20074.91667824 -.00026733  00000-0 -66208-3 0  9993
2 44945  52.9970  61.3708 0001010  22.9596 206.4887 15.39552117 10667
STARLINK-1110           
1 44946U 20001AJ  20074.83334491 -.00057663  00000-0 -13794-2 0  9993
2 44946  52.9952  61.6085 0001307  85.2758 106.3073 15.40965043 10652
STARLINK-1116           
1 44947U 20001AK  20075.25001157 -.00119285  00000-0 -28717-2 0  9991
2 44947  52.9942  59.6997 0001236  59.6122 347.9178 15.41125074 10722
STARLINK-1118           
1 44948U 20001AL  20075.00001157  .00191433  24534-4  61462-3 0  9995
2 44948  52.9945  55.1339 0003445  83.5787 262.1235 15.90632266 10759
STARLINK-1122           
1 44949U 20001AM  20075.25001157 -.00132178  00000-0 -33267-2 0  9995
2 44949  52.9948  59.7037 0001415  58.1429 267.4369 15.39845170 10719
STARLINK-1125           
1 44950U 20001AN  20074.83334491 -.00043568  00000-0 -10726-2 0  9999
2 44950  52.9928  61.7368 0001332  59.1996  68.6269 15.39975326 10657
STARLINK-1126           
1 44951U 20001AP  20074.83334491 -.00058195  00000-0 -14124-2 0  9998
2 44951  52.9935  61.6759 0001385  62.9139 101.5988 15.40534361 11948
STARLINK-1117           
1 44952U 20001AQ  20075.25001157 -.00127059  00000-0 -31063-2 0  9993
2 44952  52.9949  59.6619 0001401  52.9769 327.5663 15.40698420 10725
STARLINK-1124           
1 44953U 20001AR  20075.25001157 -.00096750  00000-0 -32316-2 0  9999
2 44953  52.9964  58.6087 0001261  54.6237  53.0036 15.30840117 12025
STARLINK-1066           
1 44954U 20001AS  20075.00001157  .00037020  00000-0  34423-3 0  9998
2 44954  52.9976  59.0914 0005121 284.0916 314.1079 15.67051213 10640
STARLINK-1069           
1 44955U 20001AT  20074.91667824 -.00084931  00000-0 -78302-3 0  9996
2 44955  52.9953  59.5068 0004170 308.3584 175.4445 15.67083588 10639
STARLINK-1070           
1 44956U 20001AU  20074.91667824 -.00090838  00000-0 -83632-3 0  9992
2 44956  52.9968  59.5074 0007154 275.3432 209.7404 15.67119093 10696
STARLINK-1074           
1 44957U 20001AV  20075.25001157 -.00076345  00000-0 -73295-3 0  9993
2 44957  52.9938  57.8907 0001452  43.9576 151.3936 15.66053213 10741
STARLINK-1075           
1 44958U 20001AW  20075.25001157 -.00079577  00000-0 -76160-3 0  9998
2 44958  52.9921  57.8852 0001722  34.4749 163.6733 15.66146726 10743
STARLINK-1076           
1 44959U 20001AX  20075.25001157 -.00050529  00000-0 -48508-3 0  9990
2 44959  52.9952  57.8997 0004561 283.6174 265.9366 15.65866759 10744
STARLINK-1077           
1 44960U 20001AY  20075.08334491  .00567504  00000-0  49987-2 0  9998
2 44960  52.9962  58.6989 0001468  72.0597 267.0778 15.66435417 10710
STARLINK-1080           
1 44961U 20001AZ  20074.91667824 -.00048068  00000-0 -45030-3 0  9996
2 44961  52.9937  59.5434 0001227  51.5012  54.5264 15.66467404 10692
STARLINK-1081           
1 44962U 20001BA  20074.83334491 -.00079644  00000-0 -72737-3 0  9997
2 44962  52.9924  59.9097 0000650 332.2962  43.5835 15.67304524 10685
STARLINK-1085           
1 44963U 20001BB  20074.91667824 -.00098052  00000-0 -90844-3 0  9999
2 44963  52.9938  59.5110 0003012 301.8466 180.5877 15.67031033 11422
STARLINK-1086           
1 44964U 20001BC  20074.91667824 -.00105402  00000-0 -98048-3 0  9992
2 44964  52.9935  59.5113 0000929   8.3631 112.7180 15.66971759 10699
STARLINK-1087           
1 44965U 20001BD  20074.83334491 -.00068546  00000-0 -63629-3 0  9999
2 44965  52.9940  59.9342 0000956 283.5846  81.3526 15.66842327 11413
STARLINK-1088           
1 44966U 20001BE  20075.25001157 -.00073366  00000-0 -70654-3 0  9999
2 44966  52.9949  57.8903 0001101  69.0187 123.4970 15.65960961 10741
STARLINK-1089           
1 44967U 20001BF  20075.25001157 -.00071853  00000-0 -69917-3 0  9999
2 44967  52.9953  57.9060 0003486 268.0463 275.8076 15.65685177 10740
STARLINK-1090           
1 44968U 20001BG  20075.25001157 -.00072558  00000-0 -70483-3 0  9993
2 44968  52.9956  57.9056 0004113 266.7395 278.5257 15.65727359 10746
STARLINK-1092           
1 44969U 20001BH  20075.25001157 -.00072949  00000-0 -70526-3 0  9996
2 44969  52.9955  57.8983 0007024 268.7823 279.3914 15.65822744 10749
STARLINK-1093           
1 44970U 20001BJ  20075.25001157 -.00067216  00000-0 -64129-3 0  9991
2 44970  52.9953  57.8793 0006567 268.6989 288.1628 15.66122056 10741
STARLINK-1095           
1 44971U 20001BK  20075.25001157 -.00078117  00000-0 -74424-3 0  9993
2 44971  52.9919  57.8782 0001587  39.7064 161.3570 15.66252137 10742
STARLINK-1107           
1 44972U 20001BL  20074.91667824 -.00051124  00000-0 -48195-3 0  9990
2 44972  52.9952  59.5520 0001035  71.1498  30.7989 15.66339319 10693
STARLINK-1115           
1 44973U 20001BM  20075.25001157 -.00065631  00000-0 -63130-3 0  9994
2 44973  52.9948  57.8920 0006553 270.0568 280.9382 15.65910068 10749
TJS-5                   
1 44978U 20002A   20074.94455163  .00000022  00000-0  10000-3 0  9994
2 44978   0.8749 282.6434 0001178  76.8123 332.0507  1.00273165   796
2020-003A               
1 45016U 20003A   20074.92542013  .00000596  00000-0  25097-4 0  9997
2 45016  97.3271 142.7803 0014036  62.3616 297.9047 15.27074320  9121
NUSAT-7 (SOPHIE)        
1 45017U 20003B   20074.78241831  .00000570  00000-0  23888-4 0  9994
2 45017  97.3272 142.6668 0014719  66.5977 293.6808 15.27407845  9103
NUSAT-8 (MARIE)         
1 45018U 20003C   20074.92204138  .00000842  00000-0  34279-4 0  9998
2 45018  97.3289 142.7944 0013847  63.7400 296.5260 15.27138587  9121
2020-003D               
1 45019U 20003D   20074.91061703  .00000701  00000-0  28724-4 0  9999
2 45019  97.3270 142.7988 0015048  67.3111 292.9717 15.27460723  9121
YINHE-1                 
1 45024U 20004A   20075.12578203  .00000027  00000-0  00000+0 0  9991
2 45024  86.3938  58.2642 0016253  62.1305 298.1562 14.80054427  8719
GSAT-30                 
1 45026U 20005A   20074.74979851  .00000022  00000-0  00000-0 0  9991
2 45026   0.0540 255.9503 0001431 195.7985  59.8763  0.99893756   600
EUTELSAT KONNECT        
1 45027U 20005B   20073.24168740 -.00000067  00000-0  00000+0 0  9992
2 45027   4.7521 246.2436 6133077 199.8399 118.0841  1.66287302  1123
STPSAT-4                
1 45043U 98067QY  20074.38446974  .00001419  00000-0  33530-4 0  9997
2 45043  51.6461  97.4971 0006051  23.0034 337.1229 15.49385432  7088
STARLINK-1132           
1 45044U 20006A   20074.91667824  .00307319  00000-0  26417-2 0  9996
2 45044  53.0004   8.6185 0001432  62.1248 202.7625 15.67855948  7517
STARLINK-1120           
1 45045U 20006B   20074.83334491 -.00087248  00000-0 -57894-2 0  9990
2 45045  52.9968  18.8817 0001426  77.2031 233.9495 15.07162862  7375
STARLINK-1129           
1 45046U 20006C   20074.75002315 -.00029707  00000-0 -20321-2 0  9990
2 45046  53.0027  19.7224 0001518  64.3180 238.6351 15.05509132  7354
STARLINK-1131           
1 45047U 20006D   20074.91667824  .00096060  00000-0  63001-2 0  9997
2 45047  52.9964  18.5069 0001418  76.1131 310.1173 15.06869122  7383
STARLINK-1134           
1 45048U 20006E   20074.91667824  .00929103  00000-0  59783-1 0  9992
2 45048  53.0028  18.9561 0001275  74.4744  24.6509 15.05422755  7375
STARLINK-1135           
1 45049U 20006F   20074.91667824  .02351570  00000-0  14873+0 0  9991
2 45049  53.0019  18.9536 0001203 113.0536 328.0919 15.05220123  1766
STARLINK-1140           
1 45050U 20006G   20074.91667824  .01048392  00000-0  66880-1 0  9994
2 45050  53.0013  18.9545 0001364  78.0977 327.0291 15.05407039  7377
STARLINK-1141           
1 45051U 20006H   20074.91667824  .01631404  00000-0  10322+0 0  9995
2 45051  52.9990  18.9331 0001748 101.3811 321.7198 15.05346813  7375
STARLINK-1148           
1 45052U 20006J   20074.75002315  .00141736  00000-0  95603-2 0  9997
2 45052  52.9998  19.7171 0001361  77.1663 108.1561 15.05551523  7356
STARLINK-1155           
1 45053U 20006K   20074.91667824  .00573485  00000-0  35340-1 0  9999
2 45053  52.9991  18.5020 0001161  92.3416  38.0527 15.07411293  7380
STARLINK-1156           
1 45054U 20006L   20074.91667824  .00231697  00000-0  15404-1 0  9995
2 45054  53.0005  18.9332 0001926  74.5906 312.4515 15.05583973  7372
STARLINK-1157           
1 45055U 20006M   20074.91667824  .00271671  00000-0  16929-1 0  9995
2 45055  53.0023  18.5022 0001305  72.3604 109.9347 15.07766264  7388
STARLINK-1158           
1 45056U 20006N   20074.91667824  .00079821  00000-0  54359-2 0  9999
2 45056  52.9990  18.9999 0001093  76.3524 274.6820 15.05579196  7375
STARLINK-1159           
1 45057U 20006P   20074.91667824 -.00048300  00000-0 -31305-2 0  9996
2 45057  53.0017  18.5056 0001509  57.0293 107.9693 15.07728063  7387
STARLINK-1162           
1 45058U 20006Q   20074.75002315 -.00075281  00000-0 -48400-2 0  9999
2 45058  53.0031  19.2289 0001295  64.3139 309.7199 15.08240854  7361
STARLINK-1165           
1 45059U 20006R   20074.91667824  .00086563  00000-0  56234-2 0  9997
2 45059  52.9983  18.5003 0001335  74.8270  20.9593 15.07283092  7381
STARLINK-1166           
1 45060U 20006S   20074.91667824  .00031980  00000-0  20987-2 0  9998
2 45060  53.0008  18.5048 0001411  66.2751  46.8088 15.07398134  7386
STARLINK-1169           
1 45061U 20006T   20074.91667824  .00137738  00000-0  89000-2 0  9998
2 45061  52.9989  18.5032 0001286  85.9501 352.4726 15.07168420  7385
STARLINK-1171           
1 45062U 20006U   20074.91667824 -.00029069  00000-0 -18770-2 0  9994
2 45062  53.0015  18.5075 0001480  59.0841  88.5372 15.07623614  7385
STARLINK-1178           
1 45063U 20006V   20074.91667824  .00213203  00000-0  13661-1 0  9991
2 45063  52.9974  18.5014 0001318  76.2928 344.7839 15.07055485  7388
